[{"OBJECT_NAME":"TIANMU-1 09","OBJECT_ID":"2023-101C","EPOCH":"2026-03-09T22:17:34.703232","MEAN_MOTION":15.29080822,"ECCENTRICITY":0.00049013,"INCLINATION":97.267,"RA_OF_ASC_NODE":121.1263,"ARG_OF_PERICENTER":139.4293,"MEAN_ANOMALY":220.7314,"EPHEMERIS_TYPE":0,"CLASSIFICATION_TYPE":"U","NORAD_CAT_ID":57401,"ELEMENT_SET_NO":999,"REV_AT_EPOCH":14647,"BSTAR":0.00030540035,"MEAN_MOTION_DOT":8.553e-5,"MEAN_MOTION_DDOT":0},{"OBJECT_NAME":"STARLINK-31952","OBJECT_ID":"2024-098K","EPOCH":"2026-03-09T13:16:34.343328","MEAN_MOTION":15.27569151,"ECCENTRICITY":0.00016731,"INCLINATION":43.0028,"RA_OF_ASC_NODE":278.9076,"ARG_OF_PERICENTER":274.594,"MEAN_ANOMALY":85.472,"EPHEMERIS_TYPE":0,"CLASSIFICATION_TYPE":"U","NORAD_CAT_ID":59867,"ELEMENT_SET_NO":999,"REV_AT_EPOCH":10182,"BSTAR":-3.122164e-5,"MEAN_MOTION_DOT":-1.121e-5,"MEAN_MOTION_DDOT":0}]
